{"type": "FeatureCollection", "features": [ {"type": "Feature", "properties": {"norad_id": 38755, "name": "SPOT 6", "group": "resource", "lat": 44.27440125863689, "lon": 47.33043061341552, "alt_km": 693.4004338902914, "timestamp": "2025-12-16T15:45:50.670766+00:00", "meta": {"OBJECT_NAME": "SPOT 6", "OBJECT_ID": "2012-047A", "EPOCH": "2025-12-15T23:05:43.240128", "MEAN_MOTION": 14.58606466, "ECCENTRICITY": 0.00011927, "INCLINATION": 98.1572, "RA_OF_ASC_NODE": 54.6877, "ARG_OF_PERICENTER": 98.78, "MEAN_ANOMALY": 261.3534, "EPHEMERIS_TYPE": 0, "CLASSIFICATION_TYPE": "U", "NORAD_CAT_ID": 38755, "ELEMENT_SET_NO": 999, "REV_AT_EPOCH": 70634, "BSTAR": 7.604464e-05, "MEAN_MOTION_DOT": 3.09e-06, "MEAN_MOTION_DDOT": 0}, "tle": {"line1": "1 38755U 12047A   25349.96230602  .00000309  00000+0  76045-4 0  9990", "line2": "2 38755  98.1572  54.6877 0001192  98.7800 261.3534 14.58606466706344"}}, "geometry": {"type": "Point", "coordinates": [47.33043061341552, 44.27440125863689]}}, {"type": "Feature", "properties": {"norad_id": 39019, "name": "PLEIADES 1B", "group": "resource", "lat": -56.38438229610836, "lon": 75.74100344423691, "alt_km": 705.5377732595125, "timestamp": "2025-12-16T15:45:50.670800+00:00", "meta": {"OBJECT_NAME": "PLEIADES 1B", "OBJECT_ID": "2012-068A", "EPOCH": "2025-12-15T21:54:55.719360", "MEAN_MOTION": 14.58556424, "ECCENTRICITY": 0.00012004, "INCLINATION": 98.1792, "RA_OF_ASC_NODE": 62.5145, "ARG_OF_PERICENTER": 83.9205, "MEAN_ANOMALY": 276.2131, "EPHEMERIS_TYPE": 0, "CLASSIFICATION_TYPE": "U", "NORAD_CAT_ID": 39019, "ELEMENT_SET_NO": 999, "REV_AT_EPOCH": 69413, "BSTAR": 0.00010181645, "MEAN_MOTION_DOT": 4.28e-06, "MEAN_MOTION_DDOT": 0}, "tle": {"line1": "1 39019U 12068A   25349.91314490  .00000428  00000+0  10182-3 0  9991", "line2": "2 39019  98.1792  62.5145 0001200  83.9205 276.2131 14.58556424694132"}}, "geometry": {"type": "Point", "coordinates": [75.74100344423691, -56.38438229610836]}}, {"type": "Feature", "properties": {"norad_id": 39030, "name": "GOKTURK 2", "group": "resource", "lat": 33.25556416225991, "lon": -172.96567797899635, "alt_km": 641.9212554176256, "timestamp": "2025-12-16T15:45:50.670817+00:00", "meta": {"OBJECT_NAME": "GOKTURK 2", "OBJECT_ID": "2012-073A", "EPOCH": "2025-12-15T23:20:03.988032", "MEAN_MOTION": 14.7529641, "ECCENTRICITY": 0.0001093, "INCLINATION": 97.6896, "RA_OF_ASC_NODE": 191.4668, "ARG_OF_PERICENTER": 105.7821, "MEAN_ANOMALY": 254.3509, "EPHEMERIS_TYPE": 0, "CLASSIFICATION_TYPE": "U", "NORAD_CAT_ID": 39030, "ELEMENT_SET_NO": 999, "REV_AT_EPOCH": 69749, "BSTAR": 8.544201e-05, "MEAN_MOTION_DOT": 5.32e-06, "MEAN_MOTION_DDOT": 0}, "tle": {"line1": "1 39030U 12073A   25349.97226838  .00000532  00000+0  85442-4 0  9992", "line2": "2 39030  97.6896 191.4668 0001093 105.7821 254.3509 14.75296410697496"}}, "geometry": {"type": "Point", "coordinates": [-172.96567797899635, 33.25556416225991]}}, {"type": "Feature", "properties": {"norad_id": 39084, "name": "LANDSAT 8", "group": "resource", "lat": 81.39441125731541, "lon": -48.83925775613297, "alt_km": 694.2855794258085, "timestamp": "2025-12-16T15:45:50.670835+00:00", "meta": {"OBJECT_NAME": "LANDSAT 8", "OBJECT_ID": "2013-008A", "EPOCH": "2025-12-15T21:12:43.882272", "MEAN_MOTION": 14.5711707, "ECCENTRICITY": 0.00010741, "INCLINATION": 98.207, "RA_OF_ASC_NODE": 57.9109, "ARG_OF_PERICENTER": 90.3694, "MEAN_ANOMALY": 269.7627, "EPHEMERIS_TYPE": 0, "CLASSIFICATION_TYPE": "U", "NORAD_CAT_ID": 39084, "ELEMENT_SET_NO": 999, "REV_AT_EPOCH": 67120, "BSTAR": 9.8403613e-05, "MEAN_MOTION_DOT": 3.98e-06, "MEAN_MOTION_DDOT": 0}, "tle": {"line1": "1 39084U 13008A   25349.88384123  .00000398  00000+0  98404-4 0  9994", "line2": "2 39084  98.2070  57.9109 0001074  90.3694 269.7627 14.57117070671204"}}, "geometry": {"type": "Point", "coordinates": [-48.83925775613297, 81.39441125731541]}}, {"type": "Feature", "properties": {"norad_id": 39086, "name": "SARAL", "group": "resource", "lat": 79.91565785403964, "lon": 52.307073331341584, "alt_km": 773.0392080539896, "timestamp": "2025-12-16T15:45:50.670852+00:00", "meta": {"OBJECT_NAME": "SARAL", "OBJECT_ID": "2013-009A", "EPOCH": "2025-12-15T22:33:37.236384", "MEAN_MOTION": 14.32758145, "ECCENTRICITY": 0.0002918, "INCLINATION": 98.5502, "RA_OF_ASC_NODE": 173.8287, "ARG_OF_PERICENTER": 102.7484, "MEAN_ANOMALY": 257.4026, "EPHEMERIS_TYPE": 0, "CLASSIFICATION_TYPE": "U", "NORAD_CAT_ID": 39086, "ELEMENT_SET_NO": 999, "REV_AT_EPOCH": 66936, "BSTAR": 6.0299529e-05, "MEAN_MOTION_DOT": 1.21e-06, "MEAN_MOTION_DDOT": 0}, "tle": {"line1": "1 39086U 13009A   25349.94001431  .00000121  00000+0  60300-4 0  9990", "line2": "2 39086  98.5502 173.8287 0002918 102.7484 257.4026 14.32758145669365"}}, "geometry": {"type": "Point", "coordinates": [52.307073331341584, 79.91565785403964]}}, {"type": "Feature", "properties": {"norad_id": 39150, "name": "GAOFEN-1", "group": "resource", "lat": 49.948644871291314, "lon": -109.20553713599986, "alt_km": 622.842641136278, "timestamp": "2025-12-16T15:45:50.670868+00:00", "meta": {"OBJECT_NAME": "GAOFEN-1", "OBJECT_ID": "2013-018A", "EPOCH": "2025-12-15T22:55:01.174080", "MEAN_MOTION": 14.76540185, "ECCENTRICITY": 0.00183469, "INCLINATION": 97.9325, "RA_OF_ASC_NODE": 60.5573, "ARG_OF_PERICENTER": 133.0488, "MEAN_ANOMALY": 227.2262, "EPHEMERIS_TYPE": 0, "CLASSIFICATION_TYPE": "U", "NORAD_CAT_ID": 39150, "ELEMENT_SET_NO": 999, "REV_AT_EPOCH": 68120, "BSTAR": 0.0001008921, "MEAN_MOTION_DOT": 6.54e-06, "MEAN_MOTION_DDOT": 0}, "tle": {"line1": "1 39150U 13018A   25349.95487470  .00000654  00000+0  10089-3 0  9993", "line2": "2 39150  97.9325  60.5573 0018346 133.0488 227.2262 14.76540185681201"}}, "geometry": {"type": "Point", "coordinates": [-109.20553713599986, 49.948644871291314]}}, {"type": "Feature", "properties": {"norad_id": 39160, "name": "VNREDSAT 1", "group": "resource", "lat": 27.905798986125987, "lon": 41.55696321036444, "alt_km": 675.5237497067301, "timestamp": "2025-12-16T15:45:50.670885+00:00", "meta": {"OBJECT_NAME": "VNREDSAT 1", "OBJECT_ID": "2013-021B", "EPOCH": "2025-12-15T23:14:34.402272", "MEAN_MOTION": 14.6492891, "ECCENTRICITY": 0.00012343, "INCLINATION": 97.9375, "RA_OF_ASC_NODE": 45.1302, "ARG_OF_PERICENTER": 77.6344, "MEAN_ANOMALY": 282.4998, "EPHEMERIS_TYPE": 0, "CLASSIFICATION_TYPE": "U", "NORAD_CAT_ID": 39160, "ELEMENT_SET_NO": 999, "REV_AT_EPOCH": 67346, "BSTAR": 0.00015479103, "MEAN_MOTION_DOT": 7.82e-06, "MEAN_MOTION_DDOT": 0}, "tle": {"line1": "1 39160U 13021B   25349.96845373  .00000782  00000+0  15479-3 0  9999", "line2": "2 39160  97.9375  45.1302 0001234  77.6344 282.4998 14.64928910673469"}}, "geometry": {"type": "Point", "coordinates": [41.55696321036444, 27.905798986125987]}}, {"type": "Feature", "properties": {"norad_id": 39227, "name": "ARIRANG-5 (KOMPSAT-5)", "group": "resource", "lat": -55.314598093127245, "lon": -173.94782570129263, "alt_km": 560.5970881490921, "timestamp": "2025-12-16T15:45:50.670904+00:00", "meta": {"OBJECT_NAME": "ARIRANG-5 (KOMPSAT-5)", "OBJECT_ID": "2013-042A", "EPOCH": "2025-12-16T08:01:54.632640", "MEAN_MOTION": 15.04519964, "ECCENTRICITY": 0.0003485, "INCLINATION": 97.6156, "RA_OF_ASC_NODE": 174.5873, "ARG_OF_PERICENTER": 48.2741, "MEAN_ANOMALY": 311.8783, "EPHEMERIS_TYPE": 0, "CLASSIFICATION_TYPE": "U", "NORAD_CAT_ID": 39227, "ELEMENT_SET_NO": 999, "REV_AT_EPOCH": 67636, "BSTAR": 0.00017472, "MEAN_MOTION_DOT": 2.387e-05, "MEAN_MOTION_DDOT": 0}, "tle": {"line1": "1 39227U 13042A   25350.33466010  .00002387  00000+0  17472-3 0  9994", "line2": "2 39227  97.6156 174.5873 0003485  48.2741 311.8783 15.04519964676363"}}, "geometry": {"type": "Point", "coordinates": [-173.94782570129263, -55.314598093127245]}}, {"type": "Feature", "properties": {"norad_id": 39418, "name": "SKYSAT-A", "group": "resource", "lat": 56.2577706375587, "lon": 29.510158342346944, "alt_km": 539.8403310708345, "timestamp": "2025-12-16T15:45:50.670922+00:00", "meta": {"OBJECT_NAME": "SKYSAT-A", "OBJECT_ID": "2013-066C", "EPOCH": "2025-12-15T17:16:12.158688", "MEAN_MOTION": 15.11626206, "ECCENTRICITY": 0.00208727, "INCLINATION": 97.411, "RA_OF_ASC_NODE": 39.8378, "ARG_OF_PERICENTER": 225.6656, "MEAN_ANOMALY": 134.2864, "EPHEMERIS_TYPE": 0, "CLASSIFICATION_TYPE": "U", "NORAD_CAT_ID": 39418, "ELEMENT_SET_NO": 999, "REV_AT_EPOCH": 66075, "BSTAR": 0.00013125401, "MEAN_MOTION_DOT": 2.177e-05, "MEAN_MOTION_DDOT": 0}, "tle": {"line1": "1 39418U 13066C   25349.71958517  .00002177  00000+0  13125-3 0  9998", "line2": "2 39418  97.4110  39.8378 0020872 225.6656 134.2864 15.11626206660750"}}, "geometry": {"type": "Point", "coordinates": [29.510158342346944, 56.2577706375587]}}, {"type": "Feature", "properties": {"norad_id": 39419, "name": "DUBAISAT-2", "group": "resource", "lat": 26.10470182198004, "lon": 164.6176324978176, "alt_km": 546.574710858782, "timestamp": "2025-12-16T15:45:50.670940+00:00", "meta": {"OBJECT_NAME": "DUBAISAT-2", "OBJECT_ID": "2013-066D", "EPOCH": "2025-12-15T23:09:50.194656", "MEAN_MOTION": 15.08394998, "ECCENTRICITY": 0.00101523, "INCLINATION": 97.4451, "RA_OF_ASC_NODE": 340.2734, "ARG_OF_PERICENTER": 310.0989, "MEAN_ANOMALY": 49.9349, "EPHEMERIS_TYPE": 0, "CLASSIFICATION_TYPE": "U", "NORAD_CAT_ID": 39419, "ELEMENT_SET_NO": 999, "REV_AT_EPOCH": 65875, "BSTAR": 0.00028595173, "MEAN_MOTION_DOT": 4.39e-05, "MEAN_MOTION_DDOT": 0}, "tle": {"line1": "1 39419U 13066D   25349.96516429  .00004390  00000+0  28595-3 0  9994", "line2": "2 39419  97.4451 340.2734 0010152 310.0989  49.9349 15.08394998658755"}}, "geometry": {"type": "Point", "coordinates": [164.6176324978176, 26.10470182198004]}}]}